# From MPC106342
C/1995 O1 (Hale-Bopp),e,88.9879,283.3656,130.6328,180.4679,0.0004065,0.99492990,0.0000,03/29.6480/1997,2000,g -2.0,4.0
# From NK 1615
P/1996 R2 (Lagerkvist),e,2.6004,40.0448,333.2967,3.774764,0.1343908,0.31384064,56.2409,04/05.0/2020,2000,g 11.5,4.0
# From MPC 30063
P/1997 B1 (Kobayashi),e,12.3406,328.8950,183.3892,8.560758,0.0393492,0.76007119,331.5575,04/05.0/2020,2000,g 15.0,2.0
# From MPC 75703
P/1998 VS24 (LINEAR),e,5.0241,159.0302,244.7537,4.531123,0.1021869,0.24170926,82.5559,04/05.0/2020,2000,g 13.0,2.0
# From NK 731
P/1999 RO28 (LONEOS),e,7.5656,137.8823,231.2796,3.426780,0.1553727,0.67190045,44.1211,04/05.0/2020,2000,g 20.0,2.0
# From MPC 75704
P/1999 XN120 (Catalina),e,5.0297,285.2954,161.9615,4.179105,0.1153663,0.21055669,118.6540,04/05.0/2020,2000,g 13.5,2.0
# From NK 744
P/2000 R2 (LINEAR),e,11.6833,160.3044,176.4861,3.465091,0.1528031,0.53146991,44.7197,04/05.0/2020,2000,g 18.0,4.0
# From MPC 43019
P/2001 H5 (NEAT),e,8.3691,328.6898,224.8716,6.098046,0.0654513,0.59905025,106.5898,04/05.0/2020,2000,g 12.0,4.0
# From MPC 75704
P/2001 Q6 (NEAT),e,56.8918,22.0938,42.9725,7.947105,0.0439937,0.82266862,297.2870,04/05.0/2020,2000,g 13.5,4.0
# From MPC 47727
P/2002 EJ57 (LINEAR),e,4.9756,330.3536,167.2889,6.473393,0.0598420,0.59334216,39.2644,04/05.0/2020,2000,g 12.5,4.0
# From MPC109588
P/2002 T5 (LINEAR),e,30.8534,123.0902,326.8079,7.000488,0.0532122,0.43757168,327.0091,04/05.0/2020,2000,g  8.0,4.0
# From MPC109588
P/2002 T6 (NEAT-LINEAR),e,10.8347,206.6787,219.4483,7.661328,0.0464781,0.55952059,286.9344,04/05.0/2020,2000,g 10.5,4.0
# From MPC 75007
C/2002 VQ94 (LINEAR),e,70.5192,34.9666,100.2006,187.1265,0.0003850,0.96347174,1.9947,04/05.0/2020,2000,g  9.5,2.0
# From MPC 50354
P/2003 F2 (NEAT),e,11.6057,359.0903,191.8398,6.484571,0.0596873,0.54197897,8.6525,04/05.0/2020,2000,g 16.5,2.0
# From MPC 50139
P/2003 QX29 (NEAT),e,11.3900,264.6044,37.3062,8.038199,0.0432480,0.47279852,275.7675,04/05.0/2020,2000,g  8.5,4.0
# From MPC105235
P/2003 T12 (SOHO),e,11.0160,174.5752,219.7714,2.586094,0.2369941,0.76960411,352.4501,04/05.0/2020,2000,g 17.0,4.0
# From MPC 82312
P/2004 A1 (LONEOS),e,10.5520,124.8527,21.5432,7.950306,0.0439671,0.30963508,250.7524,04/05.0/2020,2000,g  6.5,4.0
# From MPC 54558
P/2004 DO29 (Spacewatch-LINEAR),e,14.5311,147.3945,40.7630,7.280357,0.0501736,0.44164322,283.6634,04/05.0/2020,2000,g 13.5,2.0
# From MPC 54823
P/2004 FY140 (LINEAR),e,2.1350,326.7662,242.4752,4.899821,0.0908728,0.16908154,155.8028,04/05.0/2020,2000,g 12.5,2.0
# From MPC 53304
P/2004 R3 (LINEAR-NEAT),e,12.8093,305.5221,39.6831,4.772708,0.0945272,0.26048103,308.3627,04/05.0/2020,2000,g 14.5,4.0
# From MPC 55521
P/2004 V3 (Siding Spring),e,50.4196,356.1070,322.2490,7.147085,0.0515835,0.44620405,291.6098,04/05.0/2020,2000,g 11.5,4.0
# From MPC 75705
P/2004 V5 (LINEAR-Hill),e,19.3488,47.7494,87.8828,7.971473,0.0437921,0.44368843,242.0465,04/05.0/2020,2000,g  8.0,4.0
# From MPC 54164
P/2005 E1 (Tubbiolo),e,4.2637,335.5855,194.1856,7.034569,0.0528260,0.37538119,292.7422,04/05.0/2020,2000,g 10.0,4.0
# From MPC 54823
P/2005 GF8 (LONEOS),e,1.1931,314.8468,285.3910,5.874565,0.0692214,0.51820514,12.9812,04/05.0/2020,2000,g 11.5,4.0
# From MPC 79019
P/2005 J1 (McNaught),e,31.7694,268.7968,338.9391,3.568938,0.1461826,0.57011593,78.9634,04/05.0/2020,2000,g 16.5,4.0
# From MPC 75705
P/2005 JD108 (Catalina-NEAT),e,3.2808,223.8085,89.8747,6.519448,0.0592090,0.37656124,322.3208,04/05.0/2020,2000,g 10.0,4.0
# From MPC 74246
P/2005 L1 (McNaught),e,7.7383,138.2450,149.6268,3.976096,0.1243137,0.20928921,288.3561,04/05.0/2020,2000,g  9.5,4.0
# From MPC 75706
P/2005 S2 (Skiff),e,3.1356,161.1821,229.2164,8.019385,0.0434003,0.19631618,220.5228,04/05.0/2020,2000,g  7.5,4.0
# From MPC 75706
P/2005 SB216 (LONEOS),e,24.0622,1.2841,83.4235,7.123770,0.0518369,0.46292468,250.2045,04/05.0/2020,2000,g 12.0,2.0
# From MPC 55717
P/2005 T2 (Christensen),e,8.2929,260.1599,58.8045,3.847466,0.1305996,0.41666587,359.5601,04/05.0/2020,2000,g 14.5,4.0
# From MPC 73461
P/2005 T3 (Read),e,6.2270,27.7864,7.3344,7.570939,0.0473129,0.17342055,249.3581,04/05.0/2020,2000,g  9.0,4.0
# From MPC 73461
P/2005 T4 (SWAN),e,160.1444,25.5717,41.4769,9.359838,0.0344193,0.93017245,182.5382,04/05.0/2020,2000,g 15.0,4.0
# From MPC 75706
P/2005 T5 (Broughton),e,21.3441,57.0153,304.4865,7.293461,0.0500384,0.55154500,265.0514,04/05.0/2020,2000,g 11.0,4.0
# From MPC 56954
P/2005 W3 (Kowalski),e,16.4115,210.1299,200.5430,6.338811,0.0617579,0.54361964,327.0560,04/05.0/2020,2000,g 12.0,4.0
# From MPC 75706
P/2005 XA54 (LONEOS-Hill),e,17.1183,143.6756,15.1499,6.051205,0.0662127,0.71017957,340.1826,04/05.0/2020,2000,g 14.0,4.0
# From MPC 75706
P/2005 Y2 (McNaught),e,19.1096,94.5152,194.1806,6.360496,0.0614423,0.46853891,347.7368,04/05.0/2020,2000,g  9.0,4.0
# From MPC 56954
P/2006 F4 (Spacewatch),e,12.3864,183.9851,31.2357,3.529326,0.1486505,0.33881260,36.5801,04/05.0/2020,2000,g 15.0,4.0
# From MPC 58118
P/2006 H1 (McNaught),e,12.8051,359.8917,309.2774,5.771322,0.0710872,0.58022719,8.4941,04/05.0/2020,2000,g 12.5,4.0
# From MPC 75707
P/2006 HR30 (Siding Spring),e,31.8354,309.8869,117.3117,7.811057,0.0451481,0.84173720,219.3642,04/05.0/2020,2000,g 11.0,4.0
# From MPC 75707
P/2006 S4 (Christensen),e,39.5430,36.1040,305.1695,6.305859,0.0622426,0.50754190,319.5435,04/05.0/2020,2000,g 11.0,4.0
# From MPC 75707
P/2007 A2 (Christensen),e,26.4881,300.9083,186.8055,6.320379,0.0620282,0.55744046,299.9167,04/05.0/2020,2000,g 13.5,4.0
# From MPC 59319
P/2007 B1 (Christensen),e,12.3773,77.6665,46.7779,5.817009,0.0702513,0.58079606,339.2257,04/05.0/2020,2000,g 13.5,4.0
# From MPC 75707
P/2007 C2 (Catalina),e,8.6871,275.7402,179.6959,7.000915,0.0532074,0.46857645,243.6916,04/05.0/2020,2000,g 10.0,4.0
# From MPC 84315
C/2007 D1 (LINEAR),e,41.5003,171.1312,340.1970,1765,0.0000133,0.99499439,0.0000,06/11.5768/2007,2000,g  3.5,4.0
# From MPC 82314
P/2007 K2 (Gibbs),e,7.6427,188.6504,347.5021,7.259336,0.0503917,0.68380113,235.9883,04/05.0/2020,2000,g 14.0,4.0
# From MPC 60925
P/2007 Q2 (Gilmore),e,10.2007,172.1882,162.7919,5.654974,0.0732923,0.67035928,342.6995,04/05.0/2020,2000,g 16.0,4.0
# From MPC 75708
P/2007 R2 (Gibbs),e,1.2165,11.4393,352.3609,3.574727,0.1458276,0.54247856,336.0585,04/05.0/2020,2000,g 17.0,4.0
# From MPC 75708
P/2007 R4 (Garradd),e,20.2357,87.2169,282.7714,5.914610,0.0685196,0.66973453,317.9926,04/05.0/2020,2000,g 14.5,4.0
# From MPC 73462
P/2007 S1 (Zhao),e,5.9626,141.3976,245.8557,3.809958,0.1325329,0.33983421,238.4673,04/05.0/2020,2000,g 13.0,4.0
# From MPC 61994
P/2007 T2 (Kowalski),e,9.7395,3.3804,359.6353,3.047575,0.1852561,0.78499331,115.1293,04/05.0/2020,2000,g 18.5,4.0
# From MPC 75708
P/2007 VQ11 (Catalina),e,12.3203,163.8205,277.6865,5.424170,0.0780197,0.50310032,347.0421,04/05.0/2020,2000,g 12.0,4.0
# From MPC 75708
P/2008 CL94 (Lemmon),e,8.3491,33.3442,80.7052,6.158296,0.0644931,0.12005384,325.3539,04/05.0/2020,2000,g  8.0,4.0
# From MPC 75709
P/2008 L2 (Hill),e,25.8481,218.0037,141.1975,6.028675,0.0665842,0.61272098,284.6523,04/05.0/2020,2000,g 12.5,4.0
# From MPC 64114
P/2008 O3 (Boattini),e,32.2214,47.6146,341.0779,8.225877,0.0417764,0.69450654,181.1760,04/05.0/2020,2000,g 13.0,4.0
# From MPC 75709
P/2008 QP20 (LINEAR-Hill),e,7.5158,322.1435,75.7664,3.546543,0.1475694,0.49320265,266.0018,04/05.0/2020,2000,g 15.5,4.0
# From MPC 66204
P/2008 WZ96 (LINEAR),e,7.1325,56.6568,341.8007,3.490421,0.1511428,0.47183060,283.1899,04/05.0/2020,2000,g 13.5,4.0
# From MPC 75710
P/2008 Y3 (McNaught),e,38.7589,262.7795,238.3415,8.044335,0.0431985,0.44578801,177.6903,04/05.0/2020,2000,g  8.5,4.0
# From MPC 75710
P/2009 B1 (Boattini),e,22.2194,297.0909,128.9358,6.733969,0.0564024,0.63444960,231.2904,04/05.0/2020,2000,g 13.0,4.0
# From MPC 66466
C/2009 G1 (STEREO),e,108.7350,120.4398,175.3438,412.1319,0.0001178,0.99725474,0.0000,04/14.3811/2009,2000,g  9.0,4.0
# From MPC 75710
P/2009 O3 (Hill),e,16.2498,183.7392,154.3475,7.772758,0.0454822,0.68710487,180.8363,04/05.0/2020,2000,g 12.5,4.0
# From MPC 98557
P/2009 Q1 (Hill),e,14.5042,173.9539,157.1120,5.519860,0.0759997,0.49452950,300.7744,04/05.0/2020,2000,g 11.5,4.0
# From MPC112389
P/2009 Q4 (Boattini),e,11.0151,127.4645,320.2192,3.128078,0.1781508,0.58250658,312.6160,04/05.0/2020,2000,g 15.5,4.0
# From MPC 68902
P/2009 Q5 (McNaught),e,40.9544,160.2436,209.0217,7.440783,0.0485597,0.60811432,187.9313,04/05.0/2020,2000,g 10.0,4.0
# From MPC112389
P/2009 T2 (La Sagra),e,27.5235,215.7553,216.4730,7.725744,0.0458980,0.76478643,172.1411,04/05.0/2020,2000,g 14.0,4.0
# From MPC 75711
P/2009 U4 (McNaught),e,10.0819,55.3598,259.8546,5.079751,0.0860876,0.67587105,333.9882,04/05.0/2020,2000,g 14.0,4.0
# From MPC105235
P/2009 WX51 (Catalina),e,9.5960,31.6886,118.0720,3.078532,0.1824688,0.74017424,318.8782,04/05.0/2020,2000,g 19.0,2.0
# From MPC 74247
P/2009 Y2 (Kowalski),e,29.9287,262.0238,172.2146,6.547532,0.0588285,0.63574495,216.6305,04/05.0/2020,2000,g 13.0,4.0
# From MPC 75711
P/2010 A3 (Hill),e,14.8997,64.3089,41.7474,6.074035,0.0658397,0.73285708,241.1390,04/05.0/2020,2000,g 14.0,4.0
# From MPC 72851
P/2010 A5 (LINEAR),e,5.7985,277.6649,307.0854,5.084982,0.0859548,0.66519152,311.8310,04/05.0/2020,2000,g 13.0,4.0
# From MPC105235
P/2010 B2 (WISE),e,8.9307,0.8540,155.9290,3.109771,0.1797262,0.47992584,316.2214,04/05.0/2020,2000,g 17.0,4.0
# From MPC 75008
P/2010 C1 (Scotti),e,9.1290,141.8877,3.8972,7.101183,0.0520844,0.25868056,197.2770,04/05.0/2020,2000,g  9.5,4.0
# From MPC 75008
P/2010 D2 (WISE),e,57.0864,319.8897,120.1601,6.714715,0.0566451,0.45067632,209.4181,04/05.0/2020,2000,g 16.0,4.0
# From MPC 75009
P/2010 E2 (Jarnac),e,15.4206,177.8253,8.3728,8.635921,0.0388366,0.72078416,141.8149,04/05.0/2020,2000,g 14.0,4.0
# From MPC 72851
P/2010 H2 (Vales),e,14.2725,64.2190,128.3234,3.835912,0.1311901,0.19549641,123.0714,04/05.0/2020,2000,g  6.0,4.0
# From MPC 70361
P/2010 H3 (SOHO),e,23.3393,77.5395,25.7100,3.065481,0.1836352,0.98545589,0.0000,02/07.8575/2021,2000,g 20.0,2.0
# From MPC 73463
